NORAD_CAT_ID,OBJECT_NAME,OBJECT_TYPE,EPOCH,MEAN_MOTION,ECCENTRICITY,INCLINATION,RA_OF_ASC_NODE,ARG_OF_PERICENTER,MEAN_ANOMALY,BSTAR,MEAN_MOTION_DOT,MEAN_MOTION_DDOT,TLE_LINE0,TLE_LINE1,TLE_LINE2,SEMIMAJOR_AXIS,PERIOD,APOGEE,PERIGEE,DECAYED
51807.0,STARLINK-3606,PAYLOAD,2023-03-10 16:34:50,15.0884147,0.0001101,53.2157,214.7613,88.7596,271.3522,9.3133e-05,1.195e-05,0.0,0 STARLINK-3606,1 51807U 22017AR  23069.69085917  .00001195  00000-0  93133-4 0  9997,2 51807  53.2157 214.7613 0001101  88.7596 271.3522 15.08841470 58807,6917.876,95.437,540.503,538.979,0.0
51807.0,STARLINK-3606,PAYLOAD,2023-03-11 10:04:05,15.08837969,0.0001243,53.2185,211.4922,98.393,261.7203,-9.9684e-05,-1.874e-05,0.0,0 STARLINK-3606,1 51807U 22017AR  23070.41950876 -.00001874  00000-0 -99684-4 0  9997,2 51807  53.2185 211.4922 0001243  98.3930 261.7203 15.08837969 58910,6917.887,95.438,540.611,538.892,0.0
51807.0,STARLINK-3606,PAYLOAD,2023-03-11 14:50:14,15.08841327,0.0001428,53.2165,210.5995,106.7704,253.3445,-2.8825e-05,-7.47e-06,0.0,0 STARLINK-3606,1 51807U 22017AR  23070.61822374 -.00000747  00000-0 -28825-4 0  9997,2 51807  53.2165 210.5995 0001428 106.7704 253.3445 15.08841327 58947,6917.876,95.437,540.729,538.753,0.0
51807.0,STARLINK-3606,PAYLOAD,2023-03-11 16:25:36,15.08850743,0.0001167,53.2159,210.3012,91.6522,268.4604,5.2388e-05,5.46e-06,0.0,0 STARLINK-3606,1 51807U 22017AR  23070.68445576  .00000546  00000-0  52388-4 0  9995,2 51807  53.2159 210.3012 0001167  91.6522 268.4604 15.08850743 58955,6917.848,95.437,540.52,538.905,0.0
51807.0,STARLINK-3606,PAYLOAD,2023-03-12 09:54:52,15.08834486,8.13e-05,53.2145,207.0292,80.4543,279.6541,9.0209e-06,-1.44e-06,0.0,0 STARLINK-3606,1 51807U 22017AR  23071.41311075 -.00000144  00000-0  90209-5 0  9993,2 51807  53.2145 207.0292 0000813  80.4543 279.6541 15.08834486 59062,6917.897,95.438,540.325,539.2,0.0
51807.0,STARLINK-3606,PAYLOAD,2023-03-12 17:51:48,15.08841439,9.47e-05,53.2151,205.5422,78.743,281.3668,6.5044e-05,7.48e-06,0.0,0 STARLINK-3606,1 51807U 22017AR  23071.74430570  .00000748  00000-0  65044-4 0  9998,2 51807  53.2151 205.5422 0000947  78.7430 281.3668 15.08841439 59112,6917.876,95.437,540.396,539.086,0.0
51807.0,STARLINK-3606,PAYLOAD,2023-03-13 11:21:03,15.08829144,0.0001424,53.2155,202.2728,82.8246,277.2908,0.00010396,1.367e-05,0.0,0 STARLINK-3606,1 51807U 22017AR  23072.47295668  .00001367  00000-0  10396-3 0  9993,2 51807  53.2155 202.2728 0001424  82.8246 277.2908 15.08829144 59223,6917.914,95.438,540.764,538.793,0.0
51807.0,STARLINK-3606,PAYLOAD,2023-03-14 14:22:36,15.0883606,0.0001165,53.2158,197.2168,88.2412,271.8714,0.00012527,1.706e-05,0.0,0 STARLINK-3606,1 51807U 22017AR  23073.59903423  .00001706  00000-0  12527-3 0  9997,2 51807  53.2158 197.2168 0001165  88.2412 271.8714 15.08836060 59392,6917.892,95.438,540.563,538.951,0.0
51807.0,STARLINK-3606,PAYLOAD,2023-03-15 12:37:58,15.08864298,0.0001249,53.2158,193.0543,57.8075,302.3039,0.00028536,4.259e-05,0.0,0 STARLINK-3606,1 51807U 22017AR  23074.52636922  .00004259  00000-0  28536-3 0  9991,2 51807  53.2158 193.0543 0001249  57.8075 302.3039 15.08864298 59533,6917.806,95.436,540.535,538.807,0.0
51807.0,STARLINK-3606,PAYLOAD,2023-03-16 01:21:03,15.08859356,0.0001404,53.2155,190.678,39.5773,320.5322,0.00014772,2.065e-05,0.0,0 STARLINK-3606,1 51807U 22017AR  23075.05629010  .00002065  00000-0  14772-3 0  9990,2 51807  53.2155 190.6780 0001404  39.5773 320.5322 15.08859356 59616,6917.821,95.436,540.657,538.715,0.0
51807.0,STARLINK-3606,PAYLOAD,2023-03-16 10:53:25,15.08823894,0.0001035,53.2158,188.8906,82.5274,277.5836,-0.00018681,-3.258e-05,0.0,0 STARLINK-3606,1 51807U 22017AR  23075.45376206 -.00003258  00000-0 -18681-3 0  9990,2 51807  53.2158 188.8906 0001035  82.5274 277.5836 15.08823894 59677,6917.93,95.439,540.511,539.079,0.0
51807.0,STARLINK-3606,PAYLOAD,2023-03-17 09:08:48,15.08838229,0.0001148,53.2152,184.7274,80.4707,279.6415,-0.00023184,-3.975e-05,0.0,0 STARLINK-3606,1 51807U 22017AR  23076.38111890 -.00003975  00000-0 -23184-3 0  9999,2 51807  53.2152 184.7274 0001148  80.4707 279.6415 15.08838229 59817,6917.886,95.438,540.545,538.957,0.0
51807.0,STARLINK-3606,PAYLOAD,2023-03-17 13:54:57,15.08842964,0.0001197,53.2156,183.8372,62.1171,297.9942,-0.00015799,-2.802e-05,0.0,0 STARLINK-3606,1 51807U 22017AR  23076.57983484 -.00002802  00000-0 -15799-3 0  9997,2 51807  53.2156 183.8372 0001197  62.1171 297.9942 15.08842964 59848,6917.871,95.437,540.564,538.908,0.0
51807.0,STARLINK-3606,PAYLOAD,2023-03-18 16:56:30,15.08855796,0.0001141,53.2142,178.7809,87.0634,273.0488,0.00049573,7.614e-05,0.0,0 STARLINK-3606,1 51807U 22017AR  23077.70590592  .00007614  00000-0  49573-3 0  9998,2 51807  53.2142 178.7809 0001141  87.0634 273.0488 15.08855796 60018,6917.832,95.437,540.486,538.908,0.0
51807.0,STARLINK-3606,PAYLOAD,2023-03-19 02:28:50,15.08830409,0.0001341,53.2147,176.9981,95.5963,264.5182,0.0001243,1.69e-05,0.0,0 STARLINK-3606,1 51807U 22017AR  23078.10336142  .00001690  00000-0  12430-3 0  9992,2 51807  53.2147 176.9981 0001341  95.5963 264.5182 15.08830409 60071,6917.91,95.438,540.702,538.847,0.0
51807.0,STARLINK-3606,PAYLOAD,2023-03-19 13:36:31,15.08845136,0.0001259,53.215,174.9171,98.9115,261.202,9.1116e-05,1.163e-05,0.0,0 STARLINK-3606,1 51807U 22017AR  23078.56703473  .00001163  00000-0  91116-4 0  9991,2 51807  53.2150 174.9171 0001259  98.9115 261.2020 15.08845136 60144,6917.865,95.437,540.601,538.859,0.0
51807.0,STARLINK-3606,PAYLOAD,2023-03-20 13:27:18,15.08854054,0.0001329,53.2147,170.457,102.8182,257.2959,0.000673,0.00010443,0.0,0 STARLINK-3606,1 51807U 22017AR  23079.56063279  .00010443  00000-0  67300-3 0  9993,2 51807  53.2147 170.4570 0001329 102.8182 257.2959 15.08854054 60292,6917.837,95.437,540.622,538.783,0.0
51807.0,STARLINK-3606,PAYLOAD,2023-03-21 11:42:42,15.08850717,0.0001344,53.2145,166.293,85.749,274.3656,0.00047208,7.235e-05,0.0,0 STARLINK-3606,1 51807U 22017AR  23080.48799232  .00007235  00000-0  47208-3 0  9991,2 51807  53.2145 166.2930 0001344  85.7490 274.3656 15.08850717 60433,6917.848,95.437,540.642,538.783,0.0
51807.0,STARLINK-3606,PAYLOAD,2023-03-21 13:18:05,15.08853101,0.0001369,53.2145,165.9955,86.8622,273.2527,0.00063759,9.877e-05,0.0,0 STARLINK-3606,1 51807U 22017AR  23080.55423179  .00009877  00000-0  63759-3 0  9996,2 51807  53.2145 165.9955 0001369  86.8622 273.2527 15.08853101 60448,6917.84,95.437,540.652,538.758,0.0
51807.0,STARLINK-3606,PAYLOAD,2023-03-21 22:50:24,15.08842257,0.0001475,53.2144,164.2111,85.8153,274.3007,0.00042018,6.406e-05,0.0,0 STARLINK-3606,1 51807U 22017AR  23080.95167150  .00006406  00000-0  42018-3 0  9994,2 51807  53.2144 164.2111 0001475  85.8153 274.3007 15.08842257 60501,6917.873,95.437,540.759,538.718,0.0
51807.0,STARLINK-3606,PAYLOAD,2023-03-22 11:33:29,15.08843076,0.0001378,53.2151,161.8269,106.6317,253.4827,0.00026459,3.926e-05,0.0,0 STARLINK-3606,1 51807U 22017AR  23081.48159335  .00003926  00000-0  26459-3 0  9994,2 51807  53.2151 161.8269 0001378 106.6317 253.4827 15.08843076 60588,6917.871,95.437,540.689,538.783,0.0
51807.0,STARLINK-3606,PAYLOAD,2023-03-23 11:24:16,15.08847553,0.0001319,53.2137,157.3709,82.555,277.5592,0.00032445,4.881e-05,0.0,0 STARLINK-3606,1 51807U 22017AR  23082.47519377  .00004881  00000-0  32445-3 0  9993,2 51807  53.2137 157.3709 0001319  82.5550 277.5592 15.08847553 60734,6917.857,95.437,540.635,538.81,0.0
51807.0,STARLINK-3606,PAYLOAD,2023-03-24 11:15:02,15.08874272,0.0001298,53.2143,152.9116,88.4831,271.631,0.0011264,0.00017701,0.0,0 STARLINK-3606,1 51807U 22017AR  23083.46878223  .00017701  00000-0  11264-2 0  9991,2 51807  53.2143 152.9116 0001298  88.4831 271.6310 15.08874272 60884,6917.776,95.435,540.539,538.743,0.0
51807.0,STARLINK-3606,PAYLOAD,2023-03-24 23:58:08,15.08837464,0.0001792,53.2134,150.53,136.7183,223.395,-0.0003613,-6.033e-05,0.0,0 STARLINK-3606,1 51807U 22017AR  23083.99870522 -.00006033  00000-0 -36130-3 0  9991,2 51807  53.2134 150.5300 0001792 136.7183 223.3950 15.08837464 60964,6917.888,95.438,540.993,538.513,0.0
51807.0,STARLINK-3606,PAYLOAD,2023-03-25 09:30:28,15.08802013,0.0001035,53.2139,148.7464,119.9627,240.1468,-0.00082412,-0.00013366,0.0,0 STARLINK-3606,1 51807U 22017AR  23084.39616201 -.00013366  00000-0 -82412-3 0  9999,2 51807  53.2139 148.7464 0001035 119.9627 240.1468 15.08802013 61026,6917.997,95.44,540.578,539.145,0.0
51807.0,STARLINK-3606,PAYLOAD,2023-03-25 20:38:11,15.0880553,0.0001387,53.2147,146.6673,135.5906,224.5198,-0.00010574,-1.969e-05,0.0,0 STARLINK-3606,1 51807U 22017AR  23084.85985240 -.00001969  00000-0 -10574-3 0  9998,2 51807  53.2147 146.6673 0001387 135.5906 224.5198 15.08805530 61098,6917.986,95.44,540.81,538.891,0.0
51807.0,STARLINK-3606,PAYLOAD,2023-03-26 10:56:40,15.0884222,6.67e-05,53.2142,143.99,106.0956,254.0109,0.0016501,0.00026073,0.0,0 STARLINK-3606,1 51807U 22017AR  23085.45602091  .00026073  00000-0  16501-2 0  9991,2 51807  53.2142 143.9900 0000667 106.0956 254.0109 15.08842220 61181,6917.874,95.437,540.2,539.277,0.0
51807.0,STARLINK-3606,PAYLOAD,2023-03-26 20:28:58,15.08857235,6.95e-05,53.2143,142.2054,112.8175,247.2891,0.0013309,0.00020967,0.0,0 STARLINK-3606,1 51807U 22017AR  23085.85345795  .00020967  00000-0  13309-2 0  9999,2 51807  53.2143 142.2054 0000695 112.8175 247.2891 15.08857235 61244,6917.828,95.436,540.173,539.212,0.0
51807.0,STARLINK-3606,PAYLOAD,2023-03-27 09:12:02,15.08883428,6.51e-05,53.2138,139.826,104.9197,255.1867,0.0014989,0.00023676,0.0,0 STARLINK-3606,1 51807U 22017AR  23086.38336620  .00023676  00000-0  14989-2 0  9990,2 51807  53.2138 139.8260 0000651 104.9197 255.1867 15.08883428 61320,6917.748,95.435,540.063,539.162,0.0
51807.0,STARLINK-3606,PAYLOAD,2023-03-27 20:19:45,15.08835377,9.2e-05,53.2138,137.7446,108.589,251.5202,0.00046425,7.108e-05,0.0,0 STARLINK-3606,1 51807U 22017AR  23086.84705537  .00007108  00000-0  46425-3 0  9991,2 51807  53.2138 137.7446 0000920 108.5890 251.5202 15.08835377 61392,6917.895,95.438,540.396,539.123,0.0
